#aV2014 10 20  0  0  0.00000000     288 DD+AD WGS84 FIT  NGA
## 1815  86400.00000000   300.00000000 56950 0.0000000000000
+   31     1  2  4  5  6  7  8  9 10 11 12 13 14 15 16 17 18
+         19 20 21 22 23 24 25 26 27 28 29 30 31 32  0  0  0
+          0  0  0  0  0  0  0  0  0  0  0  0  0  0  0  0  0
+          0  0  0  0  0  0  0  0  0  0  0  0  0  0  0  0  0
+          0  0  0  0  0  0  0  0  0  0  0  0  0  0  0  0  0
++         2  2  2  2  2  2  2  2  2  2  2  2  2  2  2  2  2
++         2  2  2  2  2  2  2  2  2  2  2  2  2  2  0  0  0
++         0  0  0  0  0  0  0  0  0  0  0  0  0  0  0  0  0
++         0  0  0  0  0  0  0  0  0  0  0  0  0  0  0  0  0
++         0  0  0  0  0  0  0  0  0  0  0  0  0  0  0  0  0
%c cc cc ccc ccc cccc cccc cccc cccc ccccc ccccc ccccc ccccc
%c cc cc ccc ccc cccc cccc cccc cccc ccccc ccccc ccccc ccccc
%f  0.0000000  0.000000000  0.00000000000  0.000000000000000
%f  0.0000000  0.000000000  0.00000000000  0.000000000000000
%i    0    0    0    0      0      0      0      0         0
%i    0    0    0    0      0      0      0      0         0
/*      NGA, ST. LOUIS,MO.                                  
/*   EPHEMERIS COMPUTED FROM  1 DAYS OF DATA                
/*   EPOCHA SMOOTHER                                       
/* CCCCCCCCCCCCCCCCCCCCCCCCCCCCCCCCCCCCCCCCCCCCCCCCCCCCCCCCC
*  2014 10 20 20 30  0.00000000
P  1   2332.291874  15159.443424 -21724.246735     22.714521                    
V  1 -26344.371142   7813.500952   2784.272220      0.004503                    
P  2  20223.614927 -14212.346917   9355.232379    525.323398                    
V  2  12119.716403   -531.268259 -28426.986702      0.022150                    
P  4    439.811268  16252.408327 -21276.295089     -1.817271                    
V  4 -25324.994820   7559.417744   5584.663102     -0.004578                    
P  5   9602.512250 -12174.817311  21513.342649   -327.278721                    
V  5  20501.555799  18301.380638   1377.969267      0.041691                    
P  6  25705.536544  -5851.797137  -3175.612792      1.356081                    
V  6  -2978.098952   3883.345848 -31430.154239      0.032822                    
P  7  16001.010554   9131.076613  19356.271016    404.306881                    
V  7 -23012.394042   7637.456119  15146.067603      0.039636                    
P  8   3357.572673  14157.311153  22408.804985     16.010760                    
V  8 -27498.350321   4709.370111    539.377159      0.001651                    
P  9   9156.245154  17247.051401  18002.081272      7.689172                    
V  9  -6454.874631  21990.482798 -17801.313958     -0.054125                    
P 10  21034.217360   4198.683910  15570.236502   -146.433519                    
V 10  13336.280690  15472.688023 -21263.243725     -0.015341                    
P 11  -3190.941816  20015.814955 -17609.134214   -530.214176                    
V 11 -19050.015912  10729.415470  16302.276199     -0.028348                    
P 12  -5599.735723 -20539.232239 -16092.514927    240.287547                    
V 12  15093.040890  13400.865206 -22256.671866      0.026995                    
P 13  13108.932878   7260.136624  21795.902385    -52.886430                    
V 13  -9268.634980  26372.748037  -3355.944392     -0.035385                    
P 14 -15481.669266    563.653236 -21321.574086    123.538613                    
V 14   7430.448266 -26613.047677  -6176.344602     -0.036154                    
P 15   2394.811440 -26116.826974  -3023.237686   -209.777676                    
V 15   4462.555730  -3076.354435  31060.499928     -0.022207                    
P 16  -9734.168836  10854.384637  22133.369478   -186.726364                    
V 16 -19741.869364 -20100.947850   1518.215109      0.027183                    
P 17  15162.410038    389.555022 -21514.858633   -132.063583                    
V 17  -6771.384099  27127.389164  -4451.331237     -0.025781                    
P 18 -20966.798017 -16345.249605  -2329.845425    352.687198                    
V 18   -181.209641  -5053.668360  30577.899450      0.025812                    
P 19  -8284.319258  24970.543340    328.782965   -484.386485                    
V 19  -2678.435094  -1518.633050  32184.564964     -0.017539                    
P 20  11972.309150  20796.788967 -11659.163451    247.425781                    
V 20 -13328.357280  -6644.313425 -25907.409015      0.043000                    
P 21 -20808.349827  -5936.013666  16328.924943   -390.432514                    
V 21  17876.581922  -7939.515379  20317.042421     -0.020543                    
P 22 -21929.046502  -5617.141246 -13807.589112    278.945425                    
V 22 -11386.526295 -14161.154384  23314.001821      0.036817                    
P 23   2225.579450  24094.358868  10574.004145    -61.262104                    
V 23  -5963.049257  12384.969500 -27717.972135     -0.028149                    
P 24   1678.267822 -16178.478013 -20994.673288    -37.141675                    
V 24  25575.852550  -7569.109313   7992.242351     -0.005944                    
P 25 -16445.426254 -20191.806243  -5664.788607     17.660074                    
V 25   6614.042540   3213.811265 -30957.162525     -0.014168                    
P 26  12339.033976 -22016.011101   7141.342228    -95.123323                    
V 26   -608.594303  10336.505742  30436.125220     -0.127941                    
P 27 -12439.796522  20567.228953  11206.830028     23.709878                    
V 27    727.684753 -14450.385302  27356.018923      0.029084                    
P 28  21011.969427  11667.176200 -10828.281654    392.648251                    
V 28   8806.280385  11785.898601  28082.114524      0.025776                    
P 29  -7061.265451 -18896.108087  17322.488705    567.969332                    
V 29   7309.892629 -20706.108351 -19599.913842      0.025140                    
P 30  23824.537365   2749.647209  11469.880424    -74.096287                    
V 30 -13621.155160   5670.514726  26886.263286     -0.032854                    
P 31 -25858.470119   6726.224629   -766.539892    330.270348                    
V 31    553.593359  -2273.464082 -31880.581852     -0.004729                    
P 32  -2078.982149  18243.362292 -19353.331073   -313.073749                    
V 32 -17463.442895 -17212.533231 -13788.090288      0.087873                    
EOF
